# From MPC191597
58P/Jackson-Neujmin,e,13.0819,159.0200,200.5681,4.092666,0.1190405,0.66125225,266.5249,07/12.0/2026,2000,g 15.5,6.0
# From MPC191598
59P/Kearns-Kwee,e,9.3576,312.7261,127.7144,4.477270,0.1040361,0.47693003,296.2534,07/12.0/2026,2000,g  7.0,6.0
# From MPC191598
60P/Tsuchinshan,e,3.5796,267.3974,216.9305,3.529861,0.1486167,0.53366987,52.9640,07/12.0/2026,2000,g 11.5,6.0
# From MPC191598
61P/Shajn-Schaldach,e,5.9950,162.9500,221.7139,3.691840,0.1389440,0.42256042,188.7448,07/12.0/2026,2000,g  6.0,10.0
# From MPC191598
62P/Tsuchinshan,e,4.7352,68.6541,47.3678,3.371896,0.1591816,0.62468726,147.9798,07/12.0/2026,2000,g  8.0,10.0
# From MPEC 2026-N12
63P/Wild,e,19.6200,357.7377,168.7395,5.653855,0.0733140,0.65068968,0.4297,07/12.0/2026,2000,g 10.5,6.0
# From MPC191598
64P/Swift-Gehrels,e,8.9549,299.7616,97.3312,4.452642,0.1049005,0.68808150,294.0816,07/12.0/2026,2000,g  9.5,12.0
# From MPEC 2026-N12
65P/Gunn,e,9.1750,61.9637,213.6132,3.890985,0.1284147,0.24807499,50.1894,07/12.0/2026,2000,g  5.0,6.0
# From MPC191598
66P/duToit,e,18.6477,21.8756,257.3063,6.070616,0.0658954,0.78497044,196.7466,07/12.0/2026,2000,g 12.0,3.6
# From MPC191598
67P/Churyumov-Gerasimenko,e,3.8663,36.2904,22.2374,3.458938,0.1532110,0.64953131,262.3260,07/12.0/2026,2000,g 11.0,4.0
# From MPC191598
68P/Klemola,e,11.0970,175.0972,153.1685,4.964735,0.0890964,0.63565596,217.6154,07/12.0/2026,2000,g 10.0,4.0
# From MPC191599
69P/Taylor,e,22.0613,104.8051,343.5585,3.878569,0.1290318,0.41463925,344.0659,07/12.0/2026,2000,g  9.5,12.0
# From MPEC 2026-J11
70P/Kojima,e,6.6036,119.2358,1.8308,3.674539,0.1399264,0.45496580,239.2385,07/12.0/2026,2000,g 11.0,6.0
# From MPC191599
71P/Clark,e,9.1539,58.6766,210.9863,3.190598,0.1729402,0.47992695,220.4456,07/12.0/2026,2000,g  9.8,6.0
# From MPC191599
73P/Schwassmann-Wachmann,e,6.2319,52.5074,214.4454,3.059519,0.1841723,0.70159825,262.6226,07/12.0/2026,2000,g 11.5,6.0
# From MPC106348
73P-BT/Schwassmann-Wachmann,e,6.1937,52.5734,214.3150,3.060931,0.1840449,0.70179050,262.3364,07/12.0/2026,2000,g 11.5,6.0
# From MPC194199
74P/Smirnova-Chernykh,e,5.7811,47.6463,57.9767,5.218778,0.0826706,0.07352867,13.0386,07/12.0/2026,2000,g  5.0,6.0
# From MPEC 2026-KB8
76P/West-Kohoutek-Ikemura,e,30.4966,84.1076,0.0191,3.467747,0.1526275,0.53954086,13.6398,07/12.0/2026,2000,g  8.0,12.0
# From MPC191599
77P/Longmore,e,24.3355,14.7486,196.5803,3.618737,0.1431754,0.35231594,171.2035,07/12.0/2026,2000,g  7.0,8.0
# From MPEC 2026-N12
78P/Gehrels,e,6.2577,210.4943,192.8013,3.731685,0.1367246,0.46285380,2.3089,07/12.0/2026,2000,g  5.5,8.0
# From MPC191599
79P/duToit-Hartley,e,3.1492,280.4635,281.7856,2.941638,0.1953531,0.61977741,198.3594,07/12.0/2026,2000,g 16.0,4.0
# From MPC191600
81P/Wild,e,3.2390,136.1100,41.5517,3.450509,0.1537727,0.53810099,200.4293,07/12.0/2026,2000,g  7.0,6.0
# From MPC191600
82P/Gehrels,e,1.1289,239.2833,226.2858,4.136170,0.1171673,0.12379187,345.2401,07/12.0/2026,2000,g  5.0,8.0
# From MPEC 2026-N12
84P/Giclas,e,7.5527,108.0797,281.7380,3.549868,0.1473621,0.51550082,328.2125,07/12.0/2026,2000,g  9.5,8.0
# From unp
85D/Boethin,e,4.1628,332.8247,65.5687,5.047979,0.0869016,0.77533845,188.8672,07/12.0/2026,2000,g  6.5,8.0
# From MPC191600
86P/Wild,e,15.4388,72.0428,180.8807,3.658396,0.1408536,0.35881223,229.6008,07/12.0/2026,2000,g 11.0,6.0
# From MPC191600
87P/Bus,e,3.8680,175.2618,63.3090,4.477772,0.1040186,0.19389795,247.3361,07/12.0/2026,2000,g  7.2,10.0
# From MPEC 2026-N12
88P/Howell,e,4.3819,56.6673,235.8567,3.108963,0.1797963,0.56327661,20.7218,07/12.0/2026,2000,g 11.0,6.0
# From MPC191600
89P/Russell,e,12.0640,41.3310,250.4942,3.752235,0.1356029,0.40679550,113.6110,07/12.0/2026,2000,g 11.5,6.0
# From MPC191600
90P/Gehrels,e,9.6311,13.1349,29.2410,6.056813,0.0661208,0.50990523,218.6223,07/12.0/2026,2000,g  8.5,6.0
# From MPC191600
91P/Russell,e,15.8755,241.6590,356.7862,4.169681,0.1157577,0.24998263,263.1670,07/12.0/2026,2000,g  7.5,6.0
# From MPEC 2026-M30
92P/Sanguin,e,19.4757,181.3282,163.7677,5.347325,0.0797075,0.65991462,330.6305,07/12.0/2026,2000,g 12.0,6.0
# From MPEC 2026-L50
93P/Lovas,e,12.2107,339.5480,75.0492,4.372850,0.1077847,0.61389238,7.5496,07/12.0/2026,2000,g  9.5,6.0
# From MPEC 2026-J11
94P/Russell,e,6.1870,70.8274,92.4066,3.509394,0.1499187,0.36633763,171.9946,07/12.0/2026,2000,g  9.0,6.0
# From MPC191601
96P/Machholz,e,57.5596,93.9527,14.7471,3.030877,0.1867891,0.96173217,234.8365,07/12.0/2026,2000,g 13.0,4.8
# From MPC106348
96P-B/Machholz,e,57.5147,14.4500,94.0914,3.029957,0.1868742,0.96173411,235.0263,07/12.0/2026,2000,g 13.0,4.8
# From MPC191601
97P/Metcalf-Brewington,e,17.9284,184.0558,230.2549,4.772273,0.0945401,0.45935752,151.9902,07/12.0/2026,2000,g  5.5,6.0
# From MPC191601
98P/Takamizawa,e,10.7105,114.2645,162.0247,3.608356,0.1437937,0.60678051,266.4424,07/12.0/2026,2000,g  9.0,8.0
# From MPC191601
99P/Kowal,e,4.3398,28.0374,174.5157,6.092711,0.0655373,0.22916550,101.8879,07/12.0/2026,2000,g  4.5,6.0
# From MPC191601
100P/Hartley,e,25.5697,37.6868,181.8782,3.430126,0.1551454,0.41150964,222.2312,07/12.0/2026,2000,g  9.0,8.0
# From MPC191601
101P/Chernykh,e,5.0485,116.1116,278.0133,5.820401,0.0701899,0.59484318,166.5927,07/12.0/2026,2000,g 10.0,4.8
# From MPC191601
102P/Shoemaker,e,25.8433,339.3406,20.6818,3.821749,0.1319200,0.45563750,263.7255,07/12.0/2026,2000,g  6.5,8.0
# From MPC191602
103P/Hartley,e,13.6000,219.7645,181.3346,3.476530,0.1520495,0.69311349,152.6411,07/12.0/2026,2000,g  8.5,8.0
# From MPC191602
104P/Kowal,e,5.6994,207.1465,227.3500,3.208386,0.1715040,0.66574266,281.4487,07/12.0/2026,2000,g 16.0,4.0
# From MPC191602
105P/SingerBrewster,e,9.1695,192.3839,46.2941,3.472155,0.1523370,0.40926525,81.5439,07/12.0/2026,2000,g 11.5,6.0
# From MPC191602
106P/Schuster,e,19.5223,48.8626,353.7975,3.769269,0.1346848,0.59308805,240.8607,07/12.0/2026,2000,g 14.0,4.8
# From MPC191602
108P/Ciffreo,e,11.4280,50.2701,354.5618,3.744859,0.1360037,0.55522643,240.1830,07/12.0/2026,2000,g  8.0,12.0
# From MPC191602
110P/Hartley,e,11.7111,287.4802,167.6143,3.603071,0.1441102,0.31920072,248.6533,07/12.0/2026,2000,g  1.0,12.0
# From MPC191602
111P/Helin-Roman-Crockett,e,4.2259,89.7311,1.6537,4.153269,0.1164445,0.10703487,215.0473,07/12.0/2026,2000,g  5.0,8.0
# From MPC191602
112P/Urata-Niijima,e,24.2042,31.7939,21.5862,3.520961,0.1491806,0.59069071,349.2798,07/12.0/2026,2000,g 14.0,6.0
# From MPC191602
113P/Spitaler,e,5.2880,306.6099,115.7704,3.697305,0.1386360,0.41921481,208.1575,07/12.0/2026,2000,g 13.5,4.0
# From MPC191603
114P/Wiseman-Skiff,e,18.3036,271.0211,172.8520,3.538234,0.1480895,0.55607871,350.3740,07/12.0/2026,2000,g 11.5,6.0
# From MPC191603
115P/Maury,e,11.7281,175.7853,121.0825,4.267087,0.1118167,0.52010655,243.2945,07/12.0/2026,2000,g 10.5,6.0
# From MPC191603
116P/Wild,e,3.6055,20.9590,173.1558,3.484497,0.1515284,0.37128081,220.5582,07/12.0/2026,2000,g  2.5,10.0
# From MPC194200
117P/Helin-Roman-Alu,e,8.6388,58.6922,225.0632,4.131963,0.1173463,0.24833891,172.0848,07/12.0/2026,2000,g  2.5,8.0
# From MPC191603
118P/Shoemaker-Levy,e,10.0940,142.0403,314.9951,3.349224,0.1608006,0.45368993,213.0478,07/12.0/2026,2000,g 12.0,4.0
# From MPC191603
119P/Parker-Hartley,e,7.3926,104.5423,322.3103,3.811118,0.1324724,0.38765696,189.4162,07/12.0/2026,2000,g  3.5,8.0
# From MPC191603
120P/Mueller,e,8.4779,358.6323,36.8437,3.971504,0.1245293,0.37360596,235.6602,07/12.0/2026,2000,g 12.0,4.0
# From MPEC 2026-K60
121P/Shoemaker-Holt,e,20.1611,94.1078,12.1590,4.592308,0.1001515,0.18653928,110.7915,07/12.0/2026,2000,g  6.5,8.0
# From MPEC 2026-N12
123P/West-Hartley,e,15.2813,45.8587,103.8795,3.888261,0.1285497,0.44481318,350.7564,07/12.0/2026,2000,g  4.0,10.0
# From MPEC 2026-KB8
124P/Mrkos,e,31.4062,359.9469,185.1235,3.377000,0.1588208,0.48624120,2.9216,07/12.0/2026,2000,g 13.5,2.8
# From MPC191604
125P/Spacewatch,e,9.9863,153.1542,87.0643,3.126756,0.1782638,0.51210921,152.7492,07/12.0/2026,2000,g 13.0,6.0
# From MPC191604
126P/IRAS,e,45.8782,357.8505,356.5270,5.622699,0.0739242,0.69571144,81.5804,07/12.0/2026,2000,g  6.0,8.0
# From MPEC 2026-L50
127P/Holt-Olmstead,e,14.2899,13.6120,6.3253,3.455711,0.1534256,0.35826938,219.8466,07/12.0/2026,2000,g 11.0,6.0
# From MPC194200
128P/Shoemaker-Holt,e,4.3717,214.3064,210.5714,4.480858,0.1039112,0.32227468,359.4727,07/12.0/2026,2000,g  8.5,4.0
# From MPC191604
129P/Shoemaker-Levy,e,3.4411,184.8253,308.1749,4.295442,0.1107114,0.08594641,145.5046,07/12.0/2026,2000,g 11.0,4.0
# From MPC191604
130P/McNaught-Hughes,e,5.9447,69.4243,248.1350,3.417785,0.1559865,0.45761416,127.4180,07/12.0/2026,2000,g 10.0,6.0
# From MPC191604
131P/Mueller,e,7.3621,214.1310,179.2909,3.674119,0.1399504,0.34464287,20.4644,07/12.0/2026,2000,g 11.0,4.0
# From MPC191604
132P/Helin-Roman-Alu,e,5.3752,173.9545,216.5273,3.893860,0.1282725,0.56346826,218.4375,07/12.0/2026,2000,g 11.0,6.0
# From MPC191604
134P/Kowal-Vavrova,e,4.3316,202.0195,18.5536,6.278835,0.0626449,0.58586315,280.1287,07/12.0/2026,2000,g 11.5,4.0
# From MPC191605
135P/Shoemaker-Levy,e,6.0613,213.0134,22.2826,3.802540,0.1329209,0.29315868,207.3185,07/12.0/2026,2000,g  7.0,8.0
# From MPC194200
136P/Mueller,e,9.4311,137.3854,225.7075,4.194660,0.1147252,0.29373132,63.4414,07/12.0/2026,2000,g 11.0,4.0
# From MPEC 2026-M30
137P/Shoemaker-Levy,e,4.8574,232.9303,141.1780,4.525398,0.1023809,0.57252279,283.3448,07/12.0/2026,2000,g 11.0,4.0
# From MPC194200
138P/Shoemaker-Levy,e,10.0985,309.2185,95.7651,3.616664,0.1432986,0.53153420,15.7139,07/12.0/2026,2000,g 15.0,6.0
# From MPEC 2026-L50
139P/Vaisala-Oterma,e,2.3383,242.1167,166.1183,4.511266,0.1028623,0.24799354,321.2887,07/12.0/2026,2000,g  9.5,4.0
# From MPC191605
140P/Bowell-Skiff,e,3.6688,343.3369,172.1583,6.415794,0.0606497,0.69477209,244.0637,07/12.0/2026,2000,g 11.5,6.0
# From MPC191605
141P/Machholz,e,13.9600,241.7704,153.6521,3.056589,0.1844372,0.73583130,14.7561,07/12.0/2026,2000,g 12.0,12.0
# From MPEC 2015-KD9
141P-A/Machholz,e,13.9528,241.7974,153.6421,3.056932,0.1844062,0.73584006,14.6818,07/12.0/2026,2000,g 12.0,12.0
# From MPC 37026
